[Satellite]
VERSION=1.1
NAME=ARIANE 40 R/B
NICKNAME=ARIANE 40 R/B
TLE1=1 21610U 91050F   15055.14057102  .00000395  00000-0  13862-3 0  9991
TLE2=2 21610  98.7173  89.9479 0002074 307.0596  89.3042 14.40526662238584
